COSMOS 2251 DEB         
1 36462U 93036BBM 17344.08435371  .00106920  00000-0  12266-2 0  9999
2 36462  73.8036  18.1053 0019183 341.8203  18.2326 15.61409486461097
